NOMIS Office Code,Jobcentre Office,Office Address,Postcode,lon,lat
9820,Aberdare,"Crown Buildings, Greenbach, Aberdare",CF44 7HU,-3.4493233,51.71338309999999
10619,Aberdeen Ebury House,"Ebury House, 14 Dee Street, Aberdeen",AB11 6DR,-2.1046101,57.1443288
9570,Abergavenny,"Newbridge House, Tudor Street, Abergavenny",NP7 5EF,-3.0227084,51.8217592
9871,Abertillery,"Portland Street, Abertillery",NP13 1YG,-3.136369,51.7326694
9630,Aberystwyth,"Alexandra Road, Aberystwyth, Dyfed",SY23 1LA,-4.0815352,52.4146408
01773,Abingdon,"Torus House, 38-44 Stert Street, Abingdon",OX14 3QS,-1.2818382,51.6714434
7620,Accrington,"Oak Bank House, Oak Street, Accrington",BB5 1PJ,-2.3631665,53.7516737
01568,Acton,"Armstrong Road, Acton, London",W3 7JL,-0.2476281,51.5083709
10840,Airdrie,"44 Stirling Street, Airdrie",ML6 0AH,-3.981830499999999,55.8658509
1516,Aldershot,"South Western House, Station Road, Aldershot",GU11 1HP,-0.7606875,51.2474667
5770,Alfreton,"King Street, Alfreton, Derbyshire",DE55 7AF,-1.390324,53.0969517
10604,Alloa,"17 Mar Street, Alloa, Clackmannanshire",FK10 1LX,-3.792920899999999,56.1148824
8600,Alnwick,"Roxburgh House, Roxburgh Place Greenbatt, Alnwick, Northumberland",NE66 1JX,-1.7054051,55.4118146
1683,Alton,"1 - 3 Butts Road, Alton, Hampshire",GU34 1LH,-0.9793315999999999,51.1457426
07501,Altrincham,"Roberts House, 80 Manchester Road, Altrincham",WA14 4PU,-2.3518878,53.395941
9600,Amlwch,"Unit 2, Site 9, Amlwch Business Park, Amlwch, Ynys Mon",LL68 9BQ,-4.3509248,53.4069761
9510,Ammanford,"Llys Afon, Park Street, Ammanford, Carmarthenshire",SA18 2NT,-3.9865984,51.7902712
1542,Andover,"Beech Hurst, Weyhill Road, Andover",SP10 3AJ,-1.4914072,51.206115
10530,Annan,"Murray Street, Annan",DG12 6JJ,-3.2590682,54.986383
10620,Arbroath,"2 Chalmers Street, Arbroath, Scotland",DD11 1PP,-2.5875294,56.55694570000001
5654,Arnold,"Civic Centre, Arnot Hill Park, Arnold",NG5 6LT,-1.1352577,52.9972722
5665,Ashfield,"Urban Rd, Kirkby in Ashfield, Nottinghamshire",NG17 8DA,-1.2497929,53.1004277
1820,Ashford,"International House, Dover Place, Ashford, Kent",TN23 1HT,0.8762759000000001,51.1447008
8602,Ashington,"Government Buildings, Reiverdale Road, Ashington, Northumberland",NE63 9YY,-1.5643661,55.1854399
7621,Ashton-in-Makerfield,"17-19 Gerard Street, Ashton-in-Makerfield",WN4 9AB,-2.6366053,53.4871286
7622,Ashton-Under-Lyne,"101 Old Street, Ashton-U-Lyne, Lancs",OL6 6BJ,-2.0950879,53.4878266
4646,Atherstone,"South Street, Atherstone",CV9 1DR,-1.5436624,52.57521260000001
1775,Aylesbury,"Sunley House, Oxford Road, Aylesbury, Buckinghamshire",HP19 8EZ,-0.8175931,51.8190463
10502,Ayr,"Wallacetoun House, John Street, Ayr, Ayrshire",KA8 0BX,-4.626805099999999,55.4643416
01563,Banbury,"Crown Buildings, Southam Road, Banbury",OX16 2EX,-1.3400059,52.06423239999999
10640,Banff,"Town House, 34 Low Street, Banff",AB45 1AY,-2.521439,57.6644697
9610,Bangor,"322-330 High Street, Bangor",LL57 1YA,-4.1222672,53.22861
9822,Bargoed,"Units 3&4, Lowry Plaza, Hanbury Road, Bargoed",CF81 8QT,-3.2288853,51.6888032
01611,Barking,"Phoenix House, 12 - 14 Wakering Road, Barking, Essex",IG11 8QB,0.08118399999999999,51.5403348
01649,Barnet,"Raydean House, 15-17 Western Parade, Barnet, Herts",EN5 1AH,-0.1861555,51.64529109999999
1514,Barnsbury,"1 Barnsbury Road, Islington",N1 0EX,-0.1118189,51.5342219
06674,Barnsley,"Cooper House, 59 Peel Street, Barnsley",S70 2RL,-1.4850386,53.5523921
3572,Barnstaple,"Princess House, Queen Street, Barnstaple, Devon",EX32 8HD,-4.0560089,51.0795852
10880,Barrhead,"20 Paisley Road, Barrhead",G78 1NF,-4.3978731,55.8047598
8627,Barrow,"Craven House, Michaelson Road, Barrow In Furness, Cumbria",LA14 1AE,-3.2277138,54.1098854
9823,Barry,"9 Holton Road, Barry, Vale of Glamorgan",CF63 4HA,-3.2713109,51.4045725
06630,Barton on Humber,"King Street, Barton on Humber, North Lincolnshire",DN18 5ER,-0.4394499,53.6842549
01593,Basildon,"The Basildon Centre, St Martin’s Square, Basildon, Essex",SS14 1FT,0.4546974,51.5707868
1704,Basingstoke,"Crown Buildings, Winchester Road, Basingstoke, Hampshire",RG21 8ES,-1.0899028,51.2615417
03681,Bath,"Somerset Hall, Somerset Street, Bath",BA1 1TS,-2.3604835,51.37822810000001
10891,Bathgate,"31-33 Whitburn Road, Bathgate, West Lothian",EH48 1HG,-3.643292,55.9003212
02760,Beccles,"1-5 Hungate Court, Hungate, Beccles, Suffolk",NR34 9TR,1.5641334,52.4558378
01881,Bedford,"Wyvern House, 53-57 Bromham Road, Bedford",MK40 2EH,-0.4772034000000001,52.1397083
8603,Bedlington,"Longridge House, Front Street West, Bedlington, Northumberland",NE22 5TL,-1.5976142,55.1308123
3739,Bedminster,"17-19 Kent Street, Bedminster, Bristol",BS3 3NW,-2.6015072,51.4392377
04603,Bedworth,"12 High Street, Bedworth, Nuneaton, Warwickshire",CV12 8NF,-1.4718057,52.4789453
5652,Beeston,"Acacia House, 3 Acacia Walk, Beeston, Nottingham",NG9 2LW,-1.2132379,52.92699469999999
7615,Belle Vale,"302 Childwall Valley Road, Liverpool, Merseyside",L25 2UF,-2.8571587,53.3909362
10565,Bellshill,"417 Main Street, Bellshill, Lanarkshire",ML4 1HT,-4.0137657,55.81991250000001
5773,Belper,"54 King Street, Belper, Derbyshire",DE56 1PN,-1.481534,53.02311419999999
8604,Berwick,"Norham House, 15 Walkergate, Berwick Upon Tweed, Northumberland",TD15 1DS,-2.0052125,55.7710892
6677,Beverley,"Crosskill House, Mill Lane, Beverley",HU17 9JW,-0.4238217,53.8451873
01791,Bexhill,"Amherst Road, Bexhill on Sea, East Sussex",TN40 1QH,0.4711815,50.8429503
1885,Bexleyheath,"186-194 Broadway, Bexleyheath, Kent",DA6 7BB,0.1399589,51.4574862
3573,Bideford,"Northbank House, North Road, Bideford",EX39 2NR,-4.2084661,51.0196744
1873,Biggleswade,"73 High Street, Biggleswade, Beds",SG18 0JH,-0.2631609,52.0869937
8538,Billingham,"Theatre House, Kingsway, Billingham, Cleveland",TS23 2NA,-1.2881138,54.6062682
04562,Bilston,"High Street, Bilston",WV14 0DB,-2.0797906,52.56432969999999
07503,Birkenhead,"Brunswick House, 29 Price Street, Birkenhead, Wirral, Merseyside",CH41 6JN,-3.0184305,53.3934011
04602,Birmingham South West,"1300 Bristol Road South, Northfield, Birmingham",B31 2TQ,-1.9827078,52.4006747
08822,Bishop Auckland,"Vinovium House, Saddler Street, Bishop Auckland",DL14 7BH,-1.6775954,54.6638438
3756,Bishopsworth,"59 Whitchurch Lane, Bishopsworth, Bristol",BS13 7TE,-2.6091437,51.4142193
7628,Blackburn,"Orchard House, Penny Street, Blackburn",BB1 6HA,-2.4785162,53.7507473
7629,Blackpool,"Municipal Buildings, Corporation Street, Blackpool, Lancashire",FY1 1EJ,-3.0536622,53.8177271
9872,Blackwood,"Vision House, High Street, Blackwood, Gwent",NP12 1BE,-3.1957505,51.6715929
10751,Blairgowrie,"11-13 Perth Street, Blairgowrie",PH10 6DQ,-3.3409712,56.59074039999999
03770,Blandford,"50 East Street, Blandford",DT11 7UE,-2.1630249,50.8561994
08823,Blaydon,"St Cuthberts Way, Blaydon, Tyne and Wear",NE21 5AD,-1.7085966,54.963385
8605,Blyth,"Bridge House, Percy Street, Blyth, Northumberland",NE24 2AQ,-1.5055948,55.127275
3540,Bodmin,"71A Fore Street, Bodmin",PL31 2JB,-4.7226905,50.4715244
1792,Bognor Regis,"Gloucester House, High Street, Bognor Regis, Sussex",PO21 1HH,-0.6678029999999999,50.784995
7641,Bolton,"52 Blackhorse Street, Bolton",BL1 1SX,-2.4322887,53.5773611
07631,Bootle,"Park House, 218 Stanley Road, Bootle, Merseyside",L20 3PN,-2.989772,53.4499477
1683,Bordon,"2 - 4 Chalet Hill, Bordon, Hants",GU35 0TQ,-0.8618658,51.11170019999999
1598,Borehamwood,"Elstree Way, Borehamwood, Herts",WD6 1JR,-0.2661766,51.6591979
5690,Boston,"Municipal Buildings, West Street, Boston, Lincolnshire",PE21 8QR,-0.0271676,52.9761428
03605,Bournemouth,"Tamarisk House, 1 Cotlands Road, Bournemouth",BH1 3BG,-1.8637553,50.723311699999996
1757,Bracknell,"Fitzwilliam House, Skimped Hill Lane, Bracknell, Berkshire",RG12 1JX,-0.7546764,51.4168542
6701,Bradford Eastbrook Court,"50 Vicar Lane, Bradford, West Yorkshire",BD1 5AH,-1.7467595,53.7939829
6670,Bradford Westfield House,"85 Manningham Lane, Bradford, West Yorkshire",BD1 3BE,-1.7596097,53.8004563
01580,Braintree,"The Old Post Office, Fairfield Road, Braintree, Essex",CM7 3HA,0.5538209,51.8768918
9501,Brecon,"Canal Bank, Brecon",LD3 7HL,-3.3889998,51.9433725
01581,Brentwood,"Fairfield House, Fairfield Road, Brentwood, Essex",CM14 4SB,0.2989564,51.6157594
9824,Bridgend,"Market Street, Bridgend",CF31 1LL,-3.5789705,51.5075076
4541,Bridgnorth,"Severn Street, Bridgnorth, Shropshire",WV15 6BP,-2.4120779,52.53308130000001
03682,Bridgwater,"Hanover House, Northgate, Bridgwater, Somerset",TA6 3HJ,-3.0037663,51.1307577
6680,Bridlington,"Crown Buildings, Quay Road, Bridlington, East Yorkshire",YO16 4LY,-0.1993946,54.0851305
03771,Bridport,"1 West Street, Bridport",DT6 3QJ,-2.7584792,50.7338546
01793,Brighton,"Windsor House, 30-35 Edward Street, Brighton, East Sussex",BN2 0LN,-0.133684,50.8229404
03738,Bristol Temple Street,"100 Temple Street, Bristol",BS1 6AG,-2.5866305,51.4495563
3575,Brixham,"Decca House, 28 New Road, Brixham, Devon",TQ5 8NQ,-3.5195455,50.3932991
04604,"Broad Street, Birmingham","Centennial House, 100 Broad Street, Birmingham",B15 1AU,-1.9152087,52.4750291
07519,Bromborough,"Port Causeway House, 1 Port Causeway, Bromborough, Wirral",CH62 4TG,-2.9849806,53.3475768
1886,Bromley,"Unicorn House, 28 Elmfield Road, Bromley, Kent",BR1 1NX,0.0181376,51.4004375
4720,Bromsgrove,"Parkside Market Street, Bromsgrove, Worcestershire",B61 8DA,-2.059345,52.3369911
4565,Brownhills,"107 High Street, Brownhills, Walsall",WS8 6HL,-1.9310328,52.6459645
10641,Buckie,"Shanks Lane, Buckie, Banffshire",AB56 1AF,-2.9622475,57.676666
03541,Bude,"Summerleaze Crescent, Bude, Cornwall",EX23 8BT,-4.5463132,50.83117650000001
5651,Bulwell,"Sovereign House, Bulwell High Road, Bulwell, Nottingham",NG6 8HX,-1.1977455,52.9989954
07632,Burnley,"Hammerton Building, Victoria Street, Burnley, Lancashire",BB11 1DD,-2.2454732,53.78861879999999
4567,Burton on Trent,"Crown House, New Street, Burton On Trent, Staffordshire",DE14 3SN,-1.6332936,52.8015784
7633,Bury,"Silver Street, Bury",BL9 0DP,-2.2996521,53.59167189999999
02763,Bury St Edmunds,"St Andrews House, St Andrews Street North, Bury St Edmunds, Suffolk",IP33 1TT,0.7109556,52.24839189999999
7595,Buxton,"84-86 Spring Gardens, Buxton, Derbyshire",SK17 6BU,-1.9090426,53.2592137
9612,Caernarfon,"Government Building, Penrallt, Caernarfon, Gwynedd",LL55 2HN,-4.2728566,53.1409769
9826,Caerphilly,"Castle Street, Caerphilly, Mid Glam",CF83 1UA,-3.2173113,51.5776049
9571,Caldicot,"66 Newport Road, Caldicot, Gwent",NP26 4BR,-2.7544928,51.5894586
1710,Camberley,"Surrey Heath House,  Knoll Road, Camberley, Surrey",GU15 3HH,-0.7431494000000001,51.3394697
2743,Cambridge,"Henry Giles House, 73 - 79 Chesterton Road, Cambridge, Cambridgeshire",CB4 3BQ,0.1208152,52.2136674
10842,Cambuslang,"Cambuslang Gate, 27 Main Street, Cambuslang, Glasgow",G72 7HB,-4.1677396,55.8192529
10630,Campbeltown,"Government Buildings, 40 Hall Street, Campbeltown, Argyll",PA28 6BZ,-5.6015722,55.4231196
1701,Canning Town,"Kilner House, 197 Freemasons Road, Canning Town, London",E16 3PD,0.0246962,51.5159369
4568,Cannock,"Government Buildings, Beecroft Road, Cannock, Staffordshire",WS11 1JR,-2.0298821,52.6910191
1822,Canterbury,"Northgate House, 115-120 Northgate, Canterbury, Kent",CT1 1EZ,1.0867643,51.2838449
1601,Canvey Island,"140 Furtherwick Road, Canvey Island, Essex",SS8 7AL,0.5926785999999999,51.5195867
9504,Cardiff Alexandra House,"377 Cowbridge Rd East, Canton, Cardiff",CF5 1WU,-3.208469,51.48201280000001
9828,Cardiff Charles Street,"64 Charles St, Cardiff, S Wales",CF10 2GS,-3.1731631,51.47999739999999
9631,Cardigan,"Crown Buildings, Napier St, Cardigan",SA43 1EF,-4.658421199999999,52.085553
8504,Carlisle,"Broadacre House, 16-20 Lowther Street, Carlisle, Cumbria",CA3 8DA,-2.9327583,54.8933292
9512,Carmarthen,"John Street, Carmarthen",SA31 1QT,-4.3079725,51.8581697
6683,Castleford,"Centurion House, Bank Street, Castleford, West Yorkshire",WF10 1HY,-1.3538307,53.7275133
10859,Castlemilk,"Unit 1, Castlemilk Arcade, Castlemilk, Glasgow",G45 9AA,-4.2351013,55.80666859999999
1823,Chatham,"Crown House, The Brook, Chatham, Kent",ME4 4LQ,0.5273918,51.38357860000001
7554,Cheetham Hill,"36 Crescent Road, Manchester, Manchester",M8 9DQ,-2.2429788,53.512074
1584,Chelmsford,"The Gemini Centre, 88 New London Road, Chelmsford, Essex",CM2 0PD,0.4718696,51.731578
04605,Chelmsley Wood,"1 Chelmsley Circle, Chelmsley Wood, Birmingham",B37 5TH,-1.74024,52.4808611
03737,Cheltenham,"7 North Street, Cheltenham",GL50 4DJ,-2.0745508,51.9018092
9576,Chepstow,"Station Road, Chepstow, Gwent",NP16 5UL,-2.6719165,51.64054789999999
1778,Chesham,"31 Red Lion Street, Chesham, Buckinghamshire",HP5 1LD,-0.6126555,51.702872
07505,Chester,"Chantry House, 55-57 City Road, Chester",CH1 3AQ,-2.8813133,53.1950782
08824,Chester-Le-Street,"Station Road, Chester-Le-Street, County Durham",DH3 3AB,-1.5746908,54.8549582
05774,Chesterfield,"Markham House, Markham Road, Chesterfield",S40 1TG,-1.4247354,53.2333067
1795,Chichester,"5 Southgate, Chichester, West Sussex",PO19 8EH,-0.7806173,50.8327858
03803,Chippenham,"Cyppa Court, Avenue La Fleche, Chippenham",SN15 3LH,-2.1107052,51.4542624
7637,Chorley,"Hamilton Road, Chorley",PR7 2HB,-2.6337071,53.6495486
03753,Cinderford,"Foundry Road, Cinderford, Gloucestershire",GL14 2JU,-2.5014053,51.8235573
03746,Cirencester,"Jobcentre Plus Council Offices, Trinity Road, Cirencester, Gloucester",GL7 1TE,-1.9659892,51.7120614
1585,Clacton,"55 Station Road, Clacton On Sea, Essex,",CO15 1RS,1.1532869,51.7905447
3686,Clevedon,"Ground Floor, Castlewood, Tickenham Road, Clevedon",BS21 6FW,-2.8409894,51.43868089999999
7639,Clitheroe,"Church Walk, Clitheroe, Lancashire",BB7 2RA,-2.3914306,53.8733171
10822,Clydebank,"Radnor House, 245 Kilbowie Road, Clydebank",G81 2JL,-4.4041881,55.9078781
5811,Coalville,"Crown House, Whitwick Road, Coalville, Leicestershire",LE67 3FB,-1.3682628,52.7255717
1570,Colchester,"40 Chapel Street South, Colchester, Essex",CO2 7AZ,0.8966046999999998,51.8859387
03747,Coleford,"Forest of Dean District Council Offices, High Street, Coleford",GL16 8FG,-2.6170527,51.7890552
9643,Colwyn,"Princess Park 2, Princess Drive, Colwyn Bay",LL29 8PL,-3.7328401,53.2984056
7506,Congleton,"Wagg Street, Congleton, Cheshire",CW12 4BD,-2.2146733,53.1619492
08827,Consett,"5A Medomsley Road, Consett",DH8 5HE,-1.8306273,54.8531393
05520,Corby,"Thoroughsale House, George Street, Corby, Northants",NN17 1PH,-0.7054288999999999,52.4900972
1850,Cosham,"Wynnstay House, 121 High Street, Cosham",PO6 3DR,-1.0674504,50.84222889999999
4638,Coventry Cofa Court,"Cheylesmore, Coventry",CV1 2HJ,-1.5098575,52.404095
10683,Cowdenbeath,"6 Pit Road, Cowdenbeath",KY4 9NQ,-3.3446595,56.111034600000004
8611,Cramlington,"17/19 Dudley Court, Manor Walks Shopping Centre, Cramlington, Northumberland",NE23 6QW,-1.5878696,55.0852387
1796,Crawley,"Gresham House, 20-22 Station Road, Crawley, West Sussex",RH10 1EZ,-0.1894037,51.1132847
07533,Crewe,"Wellington House, 38-44 Delamere Street, Crewe, Cheshire",CW1 2JY,-2.4450891,53.0978648
2543,Cromer,"North Norfolk District Council Offices, Holt Road, Cromer, Norfolk",NR27 9EN,1.2854641,52.9250459
08828,Crook,"New Road, Crook, Co Durham",DL15 8LP,-1.7472774,54.70947169999999
07668,Crosby,"Hougoumont House, 29 Hougoumont Avenue, Crosby, Liverpool",L22 0PB,-3.0225615,53.47476839999999
01729,Croydon,"Bernard Weatherill House, 8 Mint Walk, Croydon",CR0 1EA,-0.0988245,51.3714767
10821,Cumbernauld,"3 South Muirhead Road, Cumbernauld, Glasgow",G67 1AX,-3.9850543,55.9511811
10504,Cumnock,"33-34 Townhead Street, Cumnock",KA18 1JZ,-4.2633207,55.4544222
10684,Cupar,"7 Westport, Cupar",KY15 4AN,-3.0192825,56.3187781
09882,Cwmbran,"42 Gwent Square, Cwmbran, Gwent",NP44 1PL,-3.0205017,51.6539064
10570,Dalkeith,"7 Buccleuch Street, Dalkeith",EH22 1HB,-3.0715577,55.8930392
8529,Darlington,"Bondgate House, 90 Bondgate, Darlington",DL3 7JY,-1.5570144,54.5266044
1825,Dartford,"61 Lowfield Street, Dartford, Kent",DA1 1JY,0.2157074,51.44233759999999
05521,Daventry,"Civic Offices, Lodge Road, Daventry, Northamptonshire",NN11 4FP,-1.1585612,52.2600412
5533,Derby City,"Council House, Corporation Street, Derby",DE1 2FU,-1.4739784,52.9231922
2544,Dereham,"Breckland District Council Offices, Elizabeth House, Walpole Loke, Norfolk",NR19 1EE,0.9595418,52.6717543
03795,Devizes,"Maryport Street, Devizes, Wiltshire",SN10 1AE,-1.992003,51.351574
03580,Devonport,"Queens House, St Levan Road, Devonport",PL2 3BD,-4.1616886,50.3867364
06685,Dewsbury,"Crown Building, Rishworth Road, Dewsbury, West Yorkshire,",WF12 8EF,-1.6273122,53.6901673
01758,Didcot,"130 The Broadway, Didcot",OX11 8DB,-1.2391971,51.6063458
07718,Didsbury,"Danesmoor Court, 95-97 Palatine Road, West Didsbury",M20 3JQ,-2.2349817,53.42640240000001
10764,Dingwall,"3 High Street, Ross-Shire",IV15 9HL,-4.4261627,57.5954615
6763,Dinnington,"4 Church Lane, Dinnington, Sheffield",S25 2LZ,-1.2130912,53.3672925
2545,Diss,"Church Street, Diss, Norfolk",IP22 4AX,1.1109094,52.37677499999999
9618,Dolgellau,"Government Building, Arran Road, Dolgellau, Gwynedd",LL40 1BP,-3.88067,52.7425578
06699,Doncaster,"Crossgate House, Wood Street, Doncaster, South Yorkshire",DN1 3LL,-1.131562,53.5216676
01827,Dover,"72-75 Maison Dieu Road, Dover, Kent",CT16 1NN,1.3100951,51.130239
10550,Drumchapel,"67 Kinfauns Drive, Drumchapel, Glasgow",G15 7TG,-4.3722154,55.91070080000001
04722,Dudley,"Alexander House, 32 Wolverhampton Street, Dudley, West Midlands",DY1 1JR,-2.0875465,52.5105644
10531,Dumfries,"67-75 Irish Street, Dumfries",DG1 2NU,-3.611532899999999,55.0674042
10624,Dundee Wellgate,"Wellgate House, Wellgate Centre, Dundee",DD1 2DB,-2.9694312,56.4639465
10685,Dunfermline,"Merchiston House, Foundry Street, Dunfermline, Fife",KY12 9DF,-3.4631082,56.074492
10631,Dunoon,"George Street, Dunoon, Argyll",PA23 8BB,-4.9260378,55.9507983
1874,Dunstable,"Watling House, High Street North, Dunstable, Bedfordshire",LU6 1LF,-0.5313553,51.89250209999999
8831,Durham,"Elvet House, Hallgarth Street, Durham",DH1 3BP,-1.5694417,54.7727409
01571,Ealing,"86-92 Uxbridge Road, West Ealing, London",W13 8RA,-0.3150166,51.5117409
10845,East Kilbride,"55 The Plaza, Town Centre, East Kilbride",G74 1LW,-4.179908,55.75994559999999
01798,Eastbourne,"St Annes House, 2 St Annes Road, Eastbourne, East Sussex",BN21 3XX,0.2817209,50.77153
01707,Eastleigh,"Capital House, 100 Southampton Road, Eastleigh, Hampshire",SO50 5PB,-1.3510215,50.9676719
9877,Ebbw Vale,"Ty Gantre, Civic Centre, Ebbw Vale, Gwent",NP23 6XG,-3.2094484,51.78564790000001
7647,Eccles,"Sentinel House, Monton Road, Eccles, Manchester",M30 0NA,-2.3391619,53.4842413
01549,Edmonton,"112-116 Fore Street, Edmonton, London",N18 2XA,-0.0645043,51.6125396
10730,Elgin,"21 Trinity Road, Elgin, Scotland",IV30 1RJ,-3.3183546,57.65146069999999
07508,Ellesmere Port,"1-3 Mercer Walk, The Port Arcades, Ellesmere Port, Cheshire",CH65 0AP,-2.9000759,53.27762920000001
2742,Ely,"52 Market Street, Ely",CB7 4LU,0.2644389,52.4006897
01532,Enfield,"34 Windmill Hill, Enfield, Middlesex",EN2 7AL,-0.0913997,51.6534287
1730,Epsom,"50 East Street, Epsom",KT17 1HQ,-0.2616082,51.3357948
04645,Erdington,"37 Sutton New Road, Erdington, Birmingham, West Midlands",B23 6TD,-1.8408898,52.5237322
8794,Eston,"Hadrian House, 81 High Street, Eston, Middlesbrough",TS6 9EH,-1.1463931,54.5597435
7610,Everton,"Premier House, 95 Breckfield Road North, Everton, Liverpool",L5 4NQ,-2.9628031,53.42396609999999
4723,Evesham,"Evesham Contact Centre, Abbey Road, Evesham",WR11 4SB,-1.9498331,52.0904488
3579,Exeter,"Clarendon House, Western Way, Exeter, Devon",EX1 2DA,-3.5217522,50.7254267
10652,Eyemouth,"Upper Houndlaw, Eyemouth",TD14 5BS,-2.0918619,55.8712852
2547,Fakenham,"Fakenham Connect, Oak Street, Fakenham, Norfolk",NR21 9DY,0.8462922,52.8315226
10792,Falkirk,"10B Wellside Place, Falkirk",FK1 5SE,-3.7905014,56.0017732
1744,Fareham,"Crown Buildings, Civic Way, Fareham, Hants",PO16 7HR,-1.1753463,50.8538056
1604,Farnborough,"Princeton House, 1-5 Victoria Road, Farnborough, Hampshire",GU14 7NT,-0.7553063999999999,51.2939461
2766,Felixstowe,"29-31 Hamilton Road, Felixstowe, Suffolk",IP11 7AZ,1.3510753,51.9614097
1512,Finsbury Park,"52-53 Medina Road, Finsbury Park, London",N7 7JY,-0.1114001,51.5613999
7754,Fleetwood,"Roskell House, 11 - 27 Kemp Street, Fleetwood, Lancashire",FY7 6JX,-3.0104434,53.9223709
09661,Flint,"Flintshire Connects, Chapel Street, Flint",CH6 5BD,-3.1360449,53.24818819999999
1829,Folkestone,"Palting House, Trinity Road, Folkestone, Kent",CT20 2RH,1.1541648,51.0770981
1566,Forest Hill,"Heron House, 32-34 Dartmouth Road, Forest Hill, LONDON",SE23 3XU,-0.0545662,51.4383576
10625,Forfar,"Service Road, Forfar, Angus",DD8 3HY,-2.8793086,56.6502045
10731,Forres,"Tytler Street, Forres",IV36 1EL,-3.6223252,57.60886489999999
10701,Fort William,"Charles Kennedy Building, Achintore Road, Fort William",PH33 6RQ,-5.120970499999999,56.8118394
10612,Fraserburgh,"2-4 South Harbour Road, Fraserburgh",AB43 9RZ,-2.0038337,57.69033719999999
03689,Frome,"7-10 Kingsway Precinct, Frome, Somerset",BA11 1QW,-2.3199828,51.2304287
01522,Fulham,"Waterford House, 1-7 Waterford Road, London",SW6 2DL,-0.1928286,51.4798602
5634,Gainsborough,"West Lindsey District Council, Guildhall, Marshalls Yard, Lincolnshire",DN21 2NA,-0.7726497999999999,53.39887909999999
10780,Galashiels,"New Reiver House, High Street, Galashiels, Selkirkshire",TD1 1TD,-2.8121754,55.61756829999999
7652,Garston,"Speke Road, Garston, Liverpool",L19 2JZ,-2.8930604,53.3539809
08835,Gateshead,"Shildon House, High Street, Gateshead",NE8 1AS,-1.6005097,54.9627998
10507,Girvan,"Carrick Buildings, 20A Henrietta Street, Girvan",KA26 9AL,-4.8581177,55.2413138
10687,Glenrothes,"3 Postgate, Glenrothes",KY7 5LL,-3.1709256,56.1957988
7597,Glossop,"Howard Street, Glossop, Derbyshire",SK13 7DF,-1.9505757,53.4453838
3749,Gloucester,"Cedar House, Spa Road, Gloucester",GL1 1XL,-2.249461,51.85984089999999
6692,Goole,"Mulberry House, North Street, Goole, East Yorkshire",DN14 5QB,-0.8685862,53.7025246
09532,Gorseinon,"42-44 Lime Street, Gorseinon",SA4 4EH,-4.0389539,51.6682086
1612,Gosport,"1 Walpole Road, Gosport",PO12 1RR,-1.1260182,50.7946775
10549,Govan,"779/787 Govan Road, Govan, Glasgow",G51 3JY,-4.312735,55.86254530000001
10793,Grangemouth,"13/15 Charlotte Dundas Court, Grangemouth, Stirlingshire",FK3 9EA,-3.7107657,56.0090434
05692,Grantham,"Crown House, 49A Castlegate, Grantham",NG31 6SY,-0.6391964,52.9138451
1831,Gravesend,"44-46 The Grove, Gravesend, Kent",DA12 1DF,0.3724782,51.4409149
01606,Grays,"2 Derby Road, Grays, Essex",RM17 6QQ,0.3249651,51.4781092
02548,Great Yarmouth,"Copperfield House, The Conge, Great Yarmouth, Norfolk",NR30 1EJ,1.7247366,52.6099228
10501,Greenock,"99 Dalrymple Street, Greenock",PA15 1QL,-4.7538253,55.9472733
06636,Grimsby,"Bridge House, 225 Victoria Street, Grimsby, North East Lincolnshire",DN31 1NH,-0.0814153,53.5674792
1715,Guildford,"Leys House, 86 - 88 Woodbridge Road, Guildford, Surrey",GU1 4QD,-0.5753275999999999,51.2380718
8783,Guisborough,"Nathan House, Northgate, Guisborough, Cleveland",TS14 6JS,-1.0522693,54.53623349999999
6690,Guiseley,"Alva House, Otley Road, Guiseley, Leeds",LS20 8AF,-1.7128928,53.873749
1511,Hackney,"271 Mare Street, Hackney, London",E8 1EE,-0.05574830000000001,51.5439163
04724,Halesowen,"Maybrook House, Queensway, Halesowen, West Midlands",B63 4AH,-2.0529639,52.4493182
06695,Halifax,"Crossfield House, St James Road, Halifax",HX1 1PE,-1.8631585,53.7242749
10850,Hamilton,"Cameronian House, Almada Street, Hamilton, Lanarkshire",ML3 0EH,-4.0447677,55.7794715
04607,Handsworth,"Temple Row House, 25-45 Soho Road, Handsworth, Birmingham",B21 9SL,-1.9264423,52.5012336
4574,Hanley,"91 Upper Huntbach Street, Hanley, Stoke On Trent, Staffordshire",ST1 2BX,-2.1709454,53.0277238
1529,Harlesden,"161-163 High Street, Harlesden House, Harlesden, London",NW10 4TL,-0.2422938,51.5348104
01589,Harlow,"Beaufort House, Crown Gate, Essex,",CM20 1NA,0.0959767,51.76864399999999
06696,Harrogate,"Berkeley House, 35 Victoria Avenue, Harrogate, North Yorkshire",HG1 5PZ,-1.5338153,53.9918364
1865,Harrow,"Kings House, Clarendon Road, Harrow, Middlesex",HA1 1YJ,-0.3386624,51.5807259
08856,Hartlepool,"Ward Jackson House, Wesley Square, Hartlepool",TS24 8EZ,-1.2124473,54.68608769999999
1590,Harwich,"164-168 High Street, Dovercourt, Harwich, Essex",CO12 3AT,1.2828863,51.938013
01748,Hastings,"Heron House, 149-159 London Road, St Leonards, Hastings, East Sussex",TN37 6LJ,0.558172,50.8584523
01675,Hatfield,"Black Horse House, Salisbury Square, Old Hatfield, Herts",AL9 5AF,-0.2149828,51.7628405
1617,Havant,"2 Elmleigh Road, Havant, Hants",PO9 2AR,-0.9828346999999998,50.8555866
9591,Haverfordwest,"16-20 Quay Street, Haverfordwest",SA61 1BH,-4.9670694,51.800888
02770,Haverhill,"Haverhill House, Lower Downs Slade, Haverhill, Suffolk",CB9 9EE,0.4362804,52.0843368
10770,Hawick,"5-9 North Bridge Street, Hawick",TD9 9RH,-2.7843601,55.4249898
1535,Hayes,"Adam House, 818-820 Uxbridge Road, Hayes, Middlesex",UB4 0RS,-0.4160517,51.5209902
1802,Haywards Heath,"Kingsley House, 31 Boltro Road, Haywards Heath, West Sussex",RH16 1BP,-0.1064794,51.00349569999999
5778,Heanor,"Howitt Buildings, High Street, Heanor, Derbyshire",DE75 7EZ,-1.3574438,53.0153005
10824,Helensburgh,"5-7 Charlotte Street, Helensburgh, Scotland,",G84 7PH,-4.7286053,56.0024574
3548,Helston,"Helston Library, Trengrouse Way, Helston",TR13 8AG,-5.2715538,50.1005304
1666,Hemel Hempstead,"Government Building, 1 Waterhouse Street, Hemel Hempstead, Hertfordshire",HP1 1EX,-0.4738479,51.7535398
6736,Hemsworth,"Low Hall, Market Street, Hemsworth",WF9 4HP,-1.3533473,53.6115699
01536,Hendon,"10 Finchley Lane, Hendon, London",NW4 1DP,-0.2209771,51.5894428
4701,Hereford,"Blueschool House, Blueschool Street, Hereford, Herefordshire",HR1 2LX,-2.7144702,52.05847
1755,Hertford,"12-14 Parliament Square, Hertford, Hertfordshire,",SG14 1EF,-0.0789933,51.7958834
6700,Hessle,"26 The Weir, Hessle",HU13 0RX,-0.4377188,53.7240531
8606,Hexham,"St Andrews House, Haugh Lane, Hexham, Northumberland",NE46 3NF,-2.1028819,54.9741313
7656,Heywood,"Taylor Street, Heywood, Lancs",OL10 1ED,-2.2208986,53.5922841
10578,High Riggs,"20 High Riggs, Edinburgh",EH3 9HU,-3.2026694,55.9455167
1780,High Wycombe,"Aria House, 80 Oxford Road, High Wycombe, Buckinghamshire,",HP11 2DN,-0.7555864,51.6323845
05812,Hinckley,"Hinckley Hub, Rugby Road, Hinckley, Leicestershire",LE10 0FR,-1.3763855,52.5356763
9602,Holyhead,"The Old Vicarage, Newry Street, Holyhead, Anglesey",LL65 1DB,-4.6345281,53.3151295
3583,Honiton,"128 High Street, Honiton",EX14 1JP,-3.1912135,50.7988446
3763,Horfield,"1-15 Monks Park Avenue, Bristol",BS7 0UD,-2.5814629,51.4968675
1803,Horsham,"Marlborough House, 50 East Street, Horsham",RH12 1HN,-0.3254987,51.0611938
8840,Houghton-le-Spring,"Broadway House, Frederick Place, Houghton-Le-Spring, Tyne and Wear",DH4 4DL,-1.4689915,54.843031
01797,Hove,"Boundary House, 87a Boundary Road, Hove, East Sussex",BN3 7GA,-0.2052168,50.8362215
1519,Hoxton,"30 Drysdale Street, London",N1 6LT,-0.079819,51.5281537
06712,Huddersfield,"Castle House, Market Street, Huddersfield",HD1 2NE,-1.7853643,53.64413070000001
6727,Hull West Britannia House,"2 Ferensway, Hull",HU2 8NF,-0.3475098,53.7483207
2752,Huntingdon,"Pathfinder House, St Mary's Street, Huntingdon",PE29 3PB,-0.1807203,52.3296656
7690,Huyton,"Edendale House, Lathom Road, Liverpool",L36 9XS,-2.8389715,53.4135018
7511,Hyde,"Beech House, New Beech Street, Hyde, Cheshire",SK14 2LS,-2.0787907,53.4524595
1669,Hythe,"15-17 Pylewell Road, Hythe, Southampton",SO45 6ZL,-1.3998942,50.8695186
05779,Ilkeston,"58 South Street, Ilkeston, Derbyshire",DE7 8TU,-1.3088831,52.9684099
06511,Immingham,"Immingham Civic Centre, Pelham Road, Immingham, North East Lincolnshire",DN40 1QF,-0.212495,53.6158313
10761,Invergordon,"43 High Street, Invergordon",IV18 0DG,-4.171279699999999,57.6883796
10702,Inverness,"River House, Young Street, Inverness",IV3 5BP,-4.2292662,57.4768726
2772,Ipswich,"St Felix House, Silent Street, Ipswich, Suffolk",IP1 1TF,1.1534744,52.0554096
7659,Irlam,"Irlam Library, Hurst Fold, Liverpool Road, Irlam",M44 6FD,-2.4123596,53.4522492
10808,Irvine,"121 High Street, Irvine, Ayrshire",KA12 8AA,-4.6680057,55.6152416
8841,Jarrow,"56-64 Ellison Street, Jarrow, Tyne and Wear",NE32 3BX,-1.4908012,54.98198989999999
10882,Johnstone,"11 Floors Street, Johnstone",PA5 8QT,-4.517043,55.8340688
6708,Keighley,"Worth House, Worth Way, Keighley, West Yorkshire",BD21 5AG,-1.9059611,53.86580379999999
8576,Kendal,"Kentmere House, 1 Blackhall Road, Kendal, Cumbria",LA9 4BS,-2.7457988,54.33034010000001
01684,Kennington Park,"206-210 Kennington Park Road, London",SE11 4DE,-0.1097446,51.4850971
1560,Kentish Town,"178 Kentish Town Road, Kentish Town, London",NW5 2AG,-0.1413769,51.54697789999999
5524,Kettering,"Derbyshire House, Lower Street, Kettering, Northamptonshire",NN16 8BG,-0.7295750999999999,52.4008382
4725,Kidderminster,"Kidderminster Library, Market Street, Kidderminster, Worcestershire",DY10 1AB,-2.2489808,52.3861271
4576,Kidsgrove,"The Avenue, Kidsgrove, Stoke-On-Trent",ST7 1AH,-2.2421251,53.0859939
10809,Kilbirnie,"Walker Street, Kilbirnie",KA25 6HL,-4.6870744,55.7528628
8890,Killingworth,"Units 23 / 24, The Centre, Killingworth, Newcastle Upon Tyne, North Tyneside",NE12 6YT,-1.5664991,55.0364611
10812,Kilmarnock,"17 Grange Street, Kilmarnock, Ayrshire, Scotland",KA1 2DF,-4.5022709,55.6091474
2552,King’s Lynn,"Kings Lynn & West Norfolk Borough Council, Kings Court, Chapel Street, Kings Lynn",PE30 1EX,0.3968618,52.7565417
04503,Kings Heath,"3 Scots Corner, Institute Road, Kings Heath, Birmingham",B14 7EG,-1.890238,52.4337083
1731,Kingston,"Guildhall 2, High Street, Kingston-upon-Thames",KT1 1EU,-0.3059174,51.4077196
3751,Kingswood,"382-386 Two Mile Hill Road, Kingswood, Bristol",BS15 1BZ,-2.5117339,51.46286240000001
7672,Kirkby,"St Chads House, St Chads Drive, Kirkby, Liverpool",L32 8RW,-2.885023,53.481547
10688,Kirkcaldy,"5 Hunter Street, Kirkcaldy, Fife",KY1 1ED,-3.1607391,56.1108789
10825,Kirkintilloch,"Queen Street, Kirkintilloch, Glasgow",G66 1JN,-4.1598408,55.9384446
10607,Kirkwall,"Government Buildings, Tankerness Lane, Kirkwall, Orkney",KW15 1AJ,-3.0010786,58.9891302
10852,Lanark,"South Lanarkshire Council, Council Offices, South Vennel, Lanark",ML11 7JT,-3.7760907,55.6731686
07661,Lancaster,"Mitre House, Church Street, Lancaster",LA1 1JW,-2.8035849,54.05085870000001
03549,Launceston,"11 Tower Street, Launceston, Cornwall",PL15 8BQ,-4.3608589,50.6386787
4610,Leamington Spa,"Brandon House, Holly Walk, Leamington Spa, Warwickshire",CV32 4JE,-1.5293003,52.2908865
6653,Leeds Eastgate,"35 Eastgate, Leeds",LS2 7RE,-1.5358285,53.7993872
6718,Leeds Park Place,"21-22 Park Place, Leeds",LS1 2SL,-1.5538018,53.7982151
6725,Leeds Southern House,"Southern House, 529 York Road, Leeds",LS9 6TF,-1.4996662,53.8016686
5818,Leicester Charles Street,"2 Charles Street, Leicester",LE1 3JD,-1.1306041,52.6383939
5817,Leicester New Walk,"2A New Walk, Leicester",LE1 6TF,-1.1291222,52.6300406
5820,Leicester Wellington Street,"Crown Buildings, 60 Wellington Street, Leicester",LE1 6DS,-1.1305295,52.63134549999999
7662,Leigh,"Raydale House, 2 - 10 Windermere Road, Leigh, Lancashire",WN7 1UT,-2.5195718,53.5000186
1875,Leighton Buzzard,"Bossard House, West Street, Leighton Buzzard, Bedfordshire",LU7 1DA,-0.6620545999999999,51.9176107
2773,Leiston,"Leiston Enterprise Centre, Eastlands Ind Estate, Leiston, Suffolk",IP16 4US,1.5887584,52.2063691
10573,Leith,"199 Commercial Street, Leith, Edinburgh",EH6 6QP,-3.1792959,55.9777654
4704,Leominster,"Lion Court, Leominster, Herefordshire",HR6 8JE,-2.7402528,52.2283449
10608,Lerwick,"Charlotte House, Commercial Road, Lerwick",ZE1 0LQ,-1.1457899,60.1570567
1676,Letchworth,"The Peoples House, 2 Station Road, Letchworth, Garden City, Hertfordshire",SG6 3AZ,-0.2282227,51.9798394
10690,Leven,"9 Waggon Road, Leven",KY8 4PT,-2.9969649,56.19683
1804,Lewes,"Medwyn House, Mountfield Road, Lewes, East Sussex",BN7 2XR,0.013211,50.8700801
7664,Leyland,"Leyland Civic Centre, West Paddock, Leyland",PR25 1DH,-2.7038129,53.6904042
04578,Lichfield,"Guardian House, Birmingham Road, Lichfield",WS13 6JG,-1.8067118,52.6997599
03550,Liskeard,"Luxstowe House, Greenbank Road, Liskeard",PL14 3GL,-4.4618669,50.4575119
1805,Littlehampton,"33 Church Street, Littlehampton, West Sussex",BN17 5ER,-0.5368887,50.8096155
07719,Liverpool City,"One Stop Shop, St George's Way, St John's Precinct, Liverpool",L1 1LY,-2.9817442,53.40663319999999
10872,Livingston,"Unit 15 & 16B, The Centre, Almondvale South, Livingston",EH54 6NQ,-3.5109518,55.8845657
9691,Llandrindod Wells,"Automobile Palace, Princes Avenue, Llandrindod Wells, Powys",LD1 5HU,-3.3768557,52.23842990000001
9615,Llandudno,"29-31 Chapel Street, Llandudno",LL30 2SS,-3.8317917,53.3240314
9516,Llanelli,"58 Stepney Street, Llanelli, Carmarthenshire",SA15 3TN,-4.1625298,51.6818343
9603,Llangefni,"Government Buildings, Bridge Street, Llangefni, YNYS MON",LL77 7YJ,-4.3080126,53.2551409
9845,Llantrisant,"17  Ely Valley Road, Talbot Green, Pontyclun, Mid Glamorgan",CF72 8AL,-3.3847864,51.5380445
8785,Loftus,"52-53 West Road, Loftus, Saltburn-by-the-Sea, Cleveland",TS13 4RF,-0.891273,54.55445830000001
01503,London Bridge,"Coburg House, 63-67 Newington Causeway, London",SE1 6LS,-0.0980486,51.4979115
05780,Long Eaton,"Fletcher Street, Long Eaton, Nottingham",NG10 1JU,-1.2741179,52.8996939
4579,Longton,"83 - 87 The Strand, Longton, Stoke - On - Trent, Staffordshire",ST3 2PF,-2.1362119,52.9872633
5813,Loughborough,"Charnwood Borough Council, Southfield Road, Loughborough",LE11 2TX,-1.2041215,52.7691482
1708,Loughton,"284 High Road, Loughton",IG10 1RH,0.05726419999999999,51.65036
5640,Louth,"17 Eastgate, Louth, Lincolnshire",LN11 9NB,-0.006835,53.3669328
02774,Lowestoft,"Rishton House, Clapham Road, Lowestoft",NR32 1RL,1.7494926,52.476655
1880,Luton,"Cheviot House, 55 Guilford Street, Luton",LU1 2ER,-0.4151995,51.8808707
1712,Lymington,"Cannon Court, Lymington, Hants",SO41 9AQ,-1.5392843,50.75903890000001
7514,Macclesfield,"30 King Edward Street, Macclesfield",SK10 1AE,-2.1279966,53.2614815
9681,Machynlleth,"43-45 Maengwyn Street, Machynlleth, Powys",SY20 8EB,-3.851589699999999,52.5907543
9834,Maesteg,"12-16 Commercial Street, Maesteg, Bridgend, Mid Glamorgan",CF34 9DF,-3.6593495,51.6081914
1760,Maidenhead,"3 Park Street, Maidenhead, Berkshire",SL6 1SP,-0.7192834,51.5222837
1834,Maidstone,"Maidstone Link, King Street, Maidstone",ME14 1FW,0.5264694,51.27332759999999
6711,Maltby,"Abbey Court, 1 Grange Lane, Maltby",S66 7DA,-1.196372,53.4243767
4726,Malvern,"Malvern Library, Graham Road, Worcestershire",WR14 2HU,-2.3275473,52.11437859999999
5658,Mansfield,"Mansfield District Council, Civic Centre, Chesterfield Road South, Mansfield, Nottinghamshire",NG19 7BH,-1.2049033,53.1511322
01835,Margate,"Mill House, Mill Lane, Margate",CT9 1LB,1.382739,51.3858171
4507,Market Drayton,"51 Stafford St, Market Drayton, Shropshire",TF9 1JF,-2.4804499,52.9058054
05814,Market Harborough,"The Symington Building, Adam And Eve Street, Market Harborough, Leicestershire",LE16 7LT,-0.9200894000000001,52.4782804
5781,Matlock,"The Phoenix Centre, 2 Lime Grove Walk, Matlock, Derbyshire",DE4 3FD,-1.5529226,53.1390491
05815,Melton Mowbray,"Parkside, Station Approach, Burton Street, Melton Mowbray, Leicestershire",LE13 1GH,-0.8850340999999999,52.7615631
9835,Merthyr Tydfil,"Ty Bethesda, Avenue De Clichy, Merthyr Tydfil, Mid Glamorgan",CF47 8AS,-3.3822051,51.7485588
06713,Mexborough,"Crown Buildings, Adwick Road, Mexborough, South Yorkshire",S64 0BD,-1.2850711,53.5014608
8787,Middlesbrough East,"Beresford Buildings, The Greenway, Thorntree, Middlesbrough",TS3 9NB,-1.1834743,54.5652209
8788,Middlesbrough James Cook House,"79 Corporation Road, Middlesbrough",TS1 2BA,-1.229526,54.5762352
7680,Middleton,"Othen House, 7 Oldham Road, Middleton, Lancashire",M24 1BX,-2.1962642,53.5481046
2776,Mildenhall,"Forest Heath District Council, College Heath Road, Mildenhall, Suffolk",IP28 7EY,0.519361,52.3462034
9592,Milford Haven,"Suite 4A, Cedar Court, Havenshead Business Park, Milford Haven, Pembrokeshire",SA73 3LS,-5.0437068,51.7151125
1786,Milton Keynes,"Southgate House, 499 Midsummer Blvd, Milton Keynes",MK9 3BN,-0.7620273,52.040042
03696,Minehead,"17 The Avenue, Minehead, Somerset",TA24 5XZ,-3.4748731,51.20660100000001
01631,Mitcham,"Boundary House, 317 - 321 London Road, Mitcham, Surrey",CR4 4YF,-0.168653,51.4005734
09663,Mold,"St David'S Lane, Mold, Flintshire",CH7 1LH,-3.1359382,53.1700263
10627,Montrose,"Castlestead, 4 Castle Place, Montrose",DD10 8AL,-2.4687234,56.7094744
07681,Morecambe,"Heron House, 67 Queen Street, Morecambe, Lancashire",LA4 5HW,-2.8632473,54.0721965
6715,Morley,"High Point House, 88 Queen Street, Morley",LS27 9EB,-1.600305,53.7436862
8607,Morpeth,"Fountain House, Newmarket, Morpeth, Northumberland",NE61 1LA,-1.69057,55.1669631
09536,Morriston,"Oldway House, Clase Road, Morriston, West Glamorgan",SA6 8BT,-3.9240709,51.666173
10856,Motherwell,"Flemington House, 600 Windmillhill Street, Lanarkshire",ML1 2HN,-3.974396,55.7813054
10575,Musselburgh,"North House, Eskmills Park, Station Road, Musselburgh",EH21 7DU,-3.0594976,55.93923849999999
09839,Neath,"1 Windsor Road, Neath, West Glamorgan",SA11 1LY,-3.8058969,51.6621866
7683,Nelson,"14-16 Netherfield Rd, Nelson, LANCS",BB9 9AW,-2.2141084,53.8345868
7518,Neston,"Neston Community and Youth Centre, Burton Road, Neston, Cheshire",CH64 9RE,-3.061415,53.2866124
5660,Newark,"Castle House, Great North Road, Newark, Nottinghamshire",NG24 1BY,-0.8133828999999999,53.0804831
01761,Newbury,"Cromwell House, 22 Oxford Street, Newbury, Newbury",RG14 1JB,-1.3256378,51.4059804
08884,Newcastle City,"No1 Cathedral Square, Cloth Market, Newcastle Upon Tyne",NE1 1EE,-1.6125348,54.9710159
08888,Newcastle East,"Coquet House, Clifford Street, Byker, Newcastle Upon Tyne",NE6 1PH,-1.5818344,54.9760456
4580,Newcastle-under-Lyme,"Paradise Street, Newcastle Under Lyme, Staffordshire",ST5 1RS,-2.2257327,53.0092588
1807,Newhaven,"55 High Street, Newhaven, East Sussex",BN9 9PA,0.04789790000000001,50.79367800000001
10545,Newlands,"8 Coustonholm Road, Glasgow",G43 1SS,-4.2891754,55.8249961
2775,Newmarket,"Wellington Street, Newmarket, Suffolk",CB8 0WJ,0.4052455,52.244021
09880,Newport Gwent,"2-6 Charles Street, Newport, Gwent",NP20 1JR,-2.9953084,51.5854258
1677,Newport Isle of Wight,"Broadlands House, Staplers Road, Newport, Isle of Wight",PO30 2HX,-1.2868691,50.7027764
3551,Newquay,"32 East Street, Newquay",TR7 1BY,-5.0804028,50.4138081
3588,Newton Abbot,"Forde House, Brunel Road, Newton Abbot",TQ12 4FS,-3.5944358,50.5273245
8825,Newton Aycliffe,"The Avenue, Greenwell Road, Newton Aycliffe, Co Durham",DL5 4DH,-1.5703512,54.62065399999999
07684,Newton Heath,"1009 Oldham Road, Manchester",M40 2EP,-2.1873243000000002,53.5024849
9682,Newtown,"Afon House, The Park, Newtown, Powys",SY16 2PZ,-3.3186102,52.5136224
01506,North Kensington,"Unit 308 - 312, Quayside House, Kensal Road, London",W10 5BE,-0.211166,51.5264062
8885,North Shields,"Camden Street, North Shields, Tyne and Wear",NE30 1ND,-1.4434421,55.00788799999999
2554,North Walsham,"GPO Buildings, 10 Kings Arms Street, North Walsham, Norfolk",NR28 9JX,1.3854651,52.8206703
06788,Northallerton,"Elder House, East Road, Northallerton, North Yorkshire",DL6 1NU,-1.4321257,54.3402744
5526,Northampton,"Frances House, 21 Lower Mounts, Northampton",NN1 3LY,-0.8836495,52.2383888
07520,Northwich,"17-21 London Road, Northwich",CW9 5JQ,-2.5134235,53.25916609999999
2555,Norwich,"Kiln House, Side Entrance, St Lawrence Lane off Pottergate, Norwich",NR2 1BZ,1.2904745,52.6304296
5664,Nottingham Central,"Pearson Building, 55-57 Parliament St, Nottingham, Nottinghamshire",NG1 6AX,-1.152094,52.954712
5681,Nottingham Loxley House,"Loxley House, Station Street, Nottingham, Nottinghamshire",NG2 3QD,-1.1294491,52.9277802
04611,Nuneaton,"Mill House, Mill Walk, Nuneaton, Warwickshire",CV11 4DL,-1.4663493,52.5221809
10633,Oban,"Mathieson House, 1 Miller Road, Oban, Argyll",PA34 4AF,-5.468738,56.4076891
4727,Oldbury,"1 Church Street, Oldbury, Warley, West Midlands",B69 3AD,-2.0159201,52.5042312
07685,Oldham,"Tweedale House, 75 Union Street, Oldham, Manchester",OL1 1LH,-2.1131906,53.5403295
07686,Openshaw,"Cornwall Street, Openshaw, Manchester",M11 2WR,-2.173482,53.4722328
07687,Ormskirk,"31A Church Street, Ormskirk, Lancashire",L39 3QT,-2.8872061,53.56807389999999
4550,Oswestry,"27 Oswald Road, Oswestry",SY11 1DZ,-3.0506605,52.8612436
01687,Oxford,"7 Worcester Street, Oxford",OX1 2BX,-1.2631427,51.7541033
10883,Paisley,"49A High Street, Paisley, Renfrewshire",PA1 2AN,-4.428096399999999,55.8449532
01558,Palmers Green,"28 Aldermans Hill, Palmers Green",N13 4PN,-0.1103724,51.6182156
10558,Partick,"20 Benalder Street, Partick",G11 6QN,-4.3008544,55.8702726
01555,Peckham,"24-26 Peckham High Street, Peckham, London",SE15 5DS,-0.0721747,51.4732803
9894,Pembroke Dock,"23 Gordon Street, Pembroke Dock",SA72 6EP,-4.9407526,51.69427
9841,Penarth,"Charnwood House, Plymouth Road, Penarth",CF64 3DA,-3.1733828,51.43411750000001
10576,Penicuik,"25 John Street, Penicuik, Midlothian",EH26 8HN,-3.2215222,55.8271801
8511,Penrith,"19-24 Friargate, Penrith",CA11 7QH,-2.7490204,54.6632116
3545,Penryn,"Penmarin House, Commercial Road, Penryn, Cornwall",TR10 8SB,-5.101835200000001,50.1691711
3552,Penzance,"Branwell House, Clarence Street, Penzance, Cornwall",TR18 2NP,-5.5392286,50.1186898
04564,Perry Barr,"Meridian House, 115 Aston Lane, Perry Barr, Birmingham",B20 3BW,-1.8947095,52.5146677
10755,Perth,"60-62 High Street, Perth",PH1 5TH,-3.4287496,56.3965231
02756,Peterborough,"45 Bridge St, Peterborough, Cambs",PE1 1HA,-0.2420156,52.5709386
10615,Peterhead,"63 St Peter Street, Peterhead",AB42 1UX,-1.7808983,57.50743809999999
08839,Peterlee,"Hatfield House, St. Cuthbert's Road, Peterlee, Co. Durham",SR8 1PB,-1.3339747,54.7575684
03592,Plymouth,"Old Tree Court, 64 Exeter Street, Plymouth, Devon",PL4 0AJ,-4.1331449,50.3713791
6722,Pontefract,"Challand House, Liquorice Way, Pontefract, West Yorkshire",WF8 1DR,-1.3136895,53.6906007
09883,Pontypool,"Park Road, Pontypool, Torfaen",NP4 6XQ,-3.041093,51.7046717
9847,Pontypridd,"Oldway House, Broadway, Pontypridd, Mid Glam",CF37 4SP,-3.3395865,51.5990402
03758,Poole,"Old Town Market, Dearhay Lane, Poole, Dorset",BH15 1NZ,-1.985038,50.71600429999999
01517,Poplar,"13 Dod Street, Poplar, London",E14 7EP,-0.0261575,51.514511
09503,Port Talbot,"64-66 Station Road, Port Talbot, West Glamorgan",SA13 1LX,-3.782612499999999,51.5956841
9838,Porth,"35 Hannah Street, Porth",CF39 9RB,-3.4057929,51.61097179999999
9549,Porthcawl,"Dock Street, Porthcawl, Mid Glamorgan",CF36 3BL,-3.703321399999999,51.4767761
9618,Porthmadog,"Thedford House, High Street, Porthmadog, Gwynedd",LL49 9LS,-4.1332911,52.9281732
10703,Portree,"Bayfield Road, Isle of Skye",IV51 9EN,-6.1942225,57.4116074
1685,Portsmouth,"Old Canal House, 27 Arundel Street, Portsmouth, Hampshire",PO1 1NB,-1.0887792,50.8001568
7757,Preston,"Gateway House, 200 Ringway, Preston",PR1 2ER,-2.7026653,53.7605459
7694,Prestwich,"1 Rectory Lane, Prestwich, Manchester",M25 1BP,-2.2821443,53.53302129999999
6769,Pudsey,"Century House, Church Lane, Pudsey, Leeds",LS28 7RQ,-1.6652151,53.7952964
01567,Purley,"24 Whytecliffe Road South, Purley, Surrey",CR8 2YU,-0.1141803,51.3379657
9013,Pwllheli,"Lower Cardiff Road, Pwllheli",LL53 5BY,-4.4195056,52.8876669
01836,Ramsgate,"Queens House, Queens Street, Ramsgate, Kent",CT11 9EW,1.4152475,51.3324232
7697,Rawtenstall,"Bacup Road, Rawstenstall",BB4 7NH,-2.2841907,53.7007272
1594,Rayleigh,"10 London Hill, Rayleigh",SS6 7HR,0.6075710999999999,51.5884633
01763,Reading,"Adelphi House, Friar Street, Reading",RG1 1HD,-0.9774425999999999,51.4561551
1602,Redbridge,"Dunne House,564-570 High Road, Seven Kings, Ilford",IG3 8EJ,0.0941525,51.5630444
8790,Redcar,"Portland House, West Dyke Road, Redcar, Cleveland",TS10 1DH,-1.068854,54.61623950000001
04747,Redditch,"Redditch Library, 15 Market Place, Redditch",B98 8AR,-1.9401519,52.30639919999999
1718,Redhill,"15 London Road, Redhill, Surrey",RH1 1BQ,-0.1684029,51.2411007
3554,Redruth,"Piran House, Nettells Hill, Redruth",TR15 1JN,-5.2299884,50.234065
10885,Renfrew,"5 High Street, Renfrew",PA4 8QL,-4.386042199999999,55.8786798
05662,Retford,"23A Grove Street, Retford, Notts",DN22 6JR,-0.9411133,53.32246620000001
9664,Rhyl,"80 High Street, Rhyl, Denbighshire, DENBIGHSHIRE",LL18 1UU,-3.4893367,53.3198557
06791,Richmond,"Victoria Road, Richmond, North Yorkshire",DL10 4AS,-1.7420635,54.404494
3504,Ringwood,"20-22 Southampton Road, Ringwood, Hampshire",BH24 1HY,-1.7906893,50.846413
7616,Rochdale,"2 Fleece Street, Rochdale",OL16 1LT,-2.1568248,53.6163751
1636,Romford,"Crown House, 30 Main Road, Romford, Essex",RM1 3HH,0.1864188,51.5810208
4705,Ross-On-Wye,"The Library, Cantilupe Road, Ross on Wye",HR9 7AN,-2.5795645,51.9148444
6724,Rotherham,"Chantry House, Douglas Street, Rotherham,",S60 2DL,-1.3540673,53.4284246
04612,Rugby,"Kingsforth House, 44 Albert Street, Rugby, Warwickshire",CV21 2TD,-1.2589012,52.3749103
07553,Runcorn,"Unit 2, The Link Building, Andrew House, Runcorn Shopping Centre, Runcorn, Cheshire",WA7 2FQ,-2.7003474,53.3263586
5529,Rushden,"71 Rectory Road, Rushden, Northants",NN10 0AF,-0.5967344,52.290699
07555,Rusholme,"96 Wilmslow Road, Rusholme, Manchester",M14 5BJ,-2.2246678,53.4540269
10858,Rutherglen,"3 Macdonald Street, Rutherglen",G73 2QW,-4.2148669,55.82671999999999
1691,Ryde,"150 High Street, Ryde, Isle Of Wight",PO33 2RE,-1.1626133,50.7270765
06515,Ryedale,"Norton Road, Malton, North Yorkshire",YO17 9RD,-0.7973102999999999,54.1320655
7703,Salford,"2 Paddington Close, Salford, Lancashire",M6 5PL,-2.2835095,53.4866024
03800,Salisbury,"Summerlock House, Summerlock Approach, Salisbury, Wiltshire",SP2 7RW,-1.8002381,51.0709891
10801,Saltcoats,"13 Dockhead Street, Saltcoats",KA21 5EZ,-4.7856934,55.633136
6793,Scarborough,"Albion House, Northway, Scarborough",YO12 7AN,-0.4549219,54.2257036
06645,Scunthorpe,"Crown Buildings, Laneham Street, Scunthorpe, North Lincolnshire",DN15 6JT,-0.650887,53.5873534
6652,Seacroft,"Parkway House, North Parkway, Seacroft, Leeds",LS14 6UZ,-1.4604579,53.8234572
08845,Seaham,"Church View House, St Johns Square, Seaham, Co Durham",SR7 7JE,-1.3354899,54.83580389999999
6728,Selby,"Flaxley Chambers, Flaxley Road, Selby",YO8 3BH,-1.073678,53.7866274
04633,Selly Oak,"Harborne Lane, Selly Oak, Birmingham, West Midlands",B29 6SP,-1.941826,52.441584400000004
01839,Sheerness,"3 Millennium Way, Sheerness",ME12 1PD,0.759168,51.440122
6731,Sheffield Bailey Court,"112 West Street, Sheffield",S1 3SY,-1.4755434,53.3811542
6666,Sheffield Cavendish Court,"9 Bank Street, Sheffield",S1 2DR,-1.4678968,53.3843384
6684,Sheffield Chambers Court,"1B Station Road , Chapeltown, Sheffield",S35 2XE,-1.464914,53.462823
6509,Sheffield Hillsborough,"Cavalry & Lancer Court, Hillsborough Barracks, 639-641 Penistone Road, Sheffield",S6 2GG,-1.4939158,53.4013769
6750,Sheffield Woodhouse,"Prospect House, Market Street, Woodhouse, Sheffield",S13 7QX,-1.3685984,53.3586598
01682,Shepherds Bush,"176-180 Uxbridge Road, Shepherds Bush, London",W12 7JP,-0.2255057,51.5054576
10544,Shettleston,"955 Shettleston Road, Shettleston, Glasgow",G32 7NY,-4.1722964,55.8520207
5517,Shirebrook,"233 Station Road, Shirebrook, Mansfield, Nottinghamshire",NG20 8AF,-1.2118,53.2040522
3505,Shirehampton,"31-32 High Street, Shirehampton, Bristol",BS11 0DX,-2.6758325,51.4889434
09665,Shotton,"Civic Centre Complex, Wepre Drive, Connah's Quay, Deeside",CH5 4HA,-3.0481537,53.21363849999999
4551,Shrewsbury,"Princess House, 17 - 19 The Square, Shrewsbury",SY1 1YA,-2.7542821,52.7072648
01840,Sittingbourne,"Roman House, 9 Roman Square, Sittingbourne",ME10 4BP,0.7367077,51.3390248
5644,Skegness,"1A Wainfleet Road, Skegness, Lincolnshire",PE25 3PA,0.3335487,53.1436346
07688,Skelmersdale,"Whelmar House, Southway, Skelmersdale",WN8 6NT,-2.7617007,53.5642272
06733,Skipton,"Unit C, Canal Walk, Keighley Road, Skipton",BD23 2DZ,-2.0183937,53.9597073
5695,Sleaford,"North Kesteven District Council, Kesteven Street, Sleaford, Lincolnshire",NG34 7DT,-0.4065147,52.9994613
1784,Slough,"Upton Lodge, 2A Yew Tree Road, Slough, Berkshire",SL1 2AQ,-0.5844613,51.5067418
4582,Smethwick,"Trinity House, High Street, Smethwick, West Midlands",B66 3AD,-1.9689753,52.4943842
04614,Solihull,"Park House, 74 New Road, Solihull, West Midlands",B91 3DR,-1.7744295,52.41180689999999
8848,South Shields,"Chapter Row, South Shields, Tyne and Wear",NE33 1BZ,-1.4360876,54.99715149999999
01769,Southampton,"St Cross House, 18 Bernard Street, Southampton, Hants",SO14 3PJ,-1.4025504,50.8996484
01596,Southend,"Dencora Court, Tylers Avenue, Southend-On-Sea",SS1 2AP,0.7157294,51.537433299999996
07705,Southport,"Eastbank House, 68B Eastbank Street, Southport",PR8 1HF,-3.0037803,53.64405009999999
8849,Southwick,"Stoney Lane, Southwick, Sunderland, Tyne and Wear",SR5 2JB,-1.4041648,54.9193942
5696,Spalding,"South Holland District Council, Council Offices, Priory Road, Spalding",PE11 2XE,-0.152389,52.7850966
04642,Sparkhill,"Heynesfield House, 10 Stoney Lane, Sparkhill, Birmingham",B12 8AF,-1.873008,52.4566066
06738,Spen Valley,"411 Bradford Road, Liversedge, West Yorkshire",WF15 6DD,-1.68849,53.7126601
8850,Spennymoor,"Barnfield Road, Spennymoor, Co Durham",DL16 6ND,-1.5973277,54.7007552
10561,Springburn,"200 Atlas Road, Springburn, Glasgow",G21 4DL,-4.2264118,55.8824993
01672,St Albans,"Beauver House, 6 Bricket Road, St Albans, Hertfordshire",AL1 3JU,-0.3351854,51.7522676
10692,St Andrews,"187 South Street, St Andrews",KY16 9EE,-2.7993132,56.33908049999999
7701,St Annes,"Westmorland House, 29-31 Orchard Road, Lytham St Annes, Lancashire",FY8 1YS,-3.0290114,53.75018739999999
3555,St Austell,"Treleaven House, 17 South Street, St Austell, Cornwall",PL25 5TY,-4.7911043,50.3376262
7708,St Helens,"Gregson House, 2 Central Street, St Helens, Merseyside",WA10 1UF,-2.7362869,53.4568239
1509,St Marylebone,"26-46 Lisson Grove, Marylebone, London",NW1 6TZ,-0.1648372,51.5223925
4583,Stafford,"St Chads Place, Stafford",ST16 2LR,-2.1158235,52.8063195
1539,Staines,"62 London Road, Staines, Middlesex,",TW18 4HB,-0.5023939,51.4360588
05697,Stamford,"13 St Johns Street, Stamford, Lincolnshire",PE9 2DB,-0.4803876,52.6516107
08852,Stanley,"2 Front Street, Stanley, Co Durham",DH9 0LT,-1.6977305,54.8710251
5783,Staveley,"Devonshire Building, Duke Street, Staveley, Chesterfield",S43 3NU,-1.350407,53.2663202
1694,Stevenage,"38-44 The Forum, Stevenage, Herts",SG1 1EZ,-0.2006378,51.9040942
10795,Stirling,"South Lodge, 2 St Ninians Road, Stirling, Stirlingshire",FK8 2HF,-3.939523,56.1105536
7525,Stockport,"Heron House, Wellington Street, Stockport, Cheshire",SK1 3BE,-2.1592023,53.4085426
8553,Stockton,"Daryl House, Bridge Road, Stockton-On-Tees, Cleveland",TS18 3BW,-1.3130221,54.561154
01629,Stockwell,"Jebb House, 155-157 Clapham Road, London",SW9 0QQ,-0.1187167,51.4749717
10762,Stornoway,"2 Castle Street, Stornoway, Isle of Lewis",HS1 2BA,-6.390689699999999,58.2079718
04730,Stourbridge,"Scotland House, 169 Lower High Street, Stourbridge, West Midlands, West Midlands",DY8 1ES,-2.1491222,52.4588815
2778,Stowmarket,"49 Ipswich Street, Stowmarket, Suffolk",IP14 1AN,0.9981924,52.1864748
10601,Stranraer,"10-12 St John Street, Stranraer",DG9 7EL,-5.0241604,54.904735
04616,Stratford-upon-Avon,"Martin Raff House, Alcester Road, Stratford Upon Avon",CV37 9DA,-1.7184438,52.19440059999999
1621,Stratford,"Oates House, 1 Tramway Avenue, London",E15 4PN,0.0030131,51.5404373
1783,Streatham,"Crown House, Station Approach, Streatham, London",SW16 6HW,-0.1331841,51.42532019999999
07782,Stretford,"Arndale House, Chester Road, Stretford, Manchester",M32 9ED,-2.309008,53.4448502
03759,Stroud,"Unicorn House, Cornhill Shopping Centre, Stroud",GL5 2JT,-2.2158541,51.7445858
02779,Sudbury,"21 Borehamgate Precinct, Sudbury, Suffolk",CO10 2EG,0.7326522999999999,52.038054700000004
8854,Sunderland,"60-66 John Street, Sunderland, Tyne and Wear",SR1 1QT,-1.3809677,54.9069568
04617,Sutton Coldfield,"King Edward Court, 2 Railway Road, Sutton Coldfield",B73 6AY,-1.8231521,52.56578039999999
01732,Sutton,"Carew House, Railway Approach, Wallington, Surrey",SM6 0DX,-0.1508824,51.360313
5784,Swadlincote,"7 The Delph Centre, Market Street, Swadlincote, Derbyshire",DE11 9DY,-1.5584967,52.7738162
09854,Swansea,"37-38 High Street, Swansea",SA1 1LS,-3.9424608,51.62381200000001
03807,Swindon,"Spring Garden House, Princes Street, Swindon, Wiltshire",SN1 2HY,-1.7801073,51.5618022
04586,Tamworth,"90 Saxon Mill Lane, Tamworth, Staffs",B79 7JJ,-1.6888395,52.6329921
03701,Taunton,"Brendon House, 35-36 High Street, Taunton, Somerset,",TA1 3NY,-3.1040694,51.012204200000014
4549,Telford,"Telford House, Southwater Way, Town Centre, Telford, Shropshire",TF3 4PD,-2.4526947,52.6763569
03761,Tewkesbury,"Council Offices, Gloucester Road, Tewkesbury",GL20 5TT,-2.1648018,51.98692459999999
2558,Thetford,"Breckland District Council, St Nicholas Street, Thetford, Norfolk",IP24 2BT,0.7562612999999999,52.4151237
8803,Thornaby,"Ingram House, Allensway, Thornaby, Stockton on Tees",TS17 9HA,-1.2895993,54.5394857
06742,Thorne,"Orchard Street, Thorne, South Yorkshire",DN8 5EQ,-0.9643267,53.6110147
01557,Thornton Heath,"72 High Street, Thornton Heath, Surrey",CR7 8YY,-0.0957411,51.3990345
4587,Tipton,"69 Owen Street, Tipton, West Midlands",DY4 8ES,-2.0694818,52.5290328
3598,Tiverton,"Phoenix House, Phoenix Lane, Tiverton",EX16 6FF,-3.4847599,50.9017952
06743,Todmorden,"27-31 Adelaide Street, Todmorden, Lancashire",OL14 5HT,-2.0981697,53.7177419
1842,Tonbridge,"Crown Building, Bradford Street, Tonbridge, Kent",TN9 1DU,0.2733477,51.1943025
9855,Tonypandy,"Thistle House, Lwynypia Road, Tonypandy, Mid Glamorgan,",CF40 2EP,-3.4575928,51.6261401
3599,Torquay,"Regal House, Castle Circus, Devon, Torquay",TQ1 3JQ,-3.5313125,50.4684805
3601,Totnes,"Follaton House, Plymouth Road, Totnes",TQ9 5EZ,-3.7091312,50.4315481
1540,Tottenham,"640-656 High Road, Tottenham, London,",N17 0AA,-0.0529637,51.59388939999999
7676,Toxteth,"High Park House, 7 High Park Street, Liverpool, Merseyside",L8 8DY,-2.9651019,53.3859158
9858,Treorchy,"Oldway House, Bute Street, Treorchy",CF42 6TE,-3.5131972,51.6642367
03804,Trowbridge,"Aplin House, Bythesea Road, Trowbridge",BA14 8XR,-2.2115152,51.3191116
3562,Truro,"Lemon Quay House, Lemon Quay, Truro, Cornwall",TR1 2PU,-5.0507639,50.2622021
1733,Twickenham,"Chatsworth House, 59-63 London Road, Twickenham, Middlesex",TW1 3SZ,-0.3294313,51.4481991
07552,Upton,"52 Arrowe Park Road, Upton, Wirral, Merseyside",CH49 0UE,-3.0989908,53.3800384
1541,Uxbridge,"Units 22-26, Market Square, The Pavilions Shopping Centre, Uxbridge",UB8 1LH,-0.4807602,51.5459636
6744,Wakefield,"Crowther House, Thornhill Street, Wakefield",WF1 1PL,-1.4956855,53.6801597
8889,Wallsend,"Hadrian House, Station Road, Wallsend, Tyne and Wear",NE28 6HP,-1.5314812,54.9894858
4635,Walsall Bayard House,"Lichfield Street, Walsall",WS1 1SP,-1.9785205,52.58591260000001
4589,Walsall Bridle Court,"1-5 Hatherton Road, Walsall",WS1 1XR,-1.9824612,52.58612
01697,Waltham Cross,"235 High Street, Waltham Cross, Herts",EN8 7BA,-0.0342492,51.6905959
4695,Walthamstow Forest Road,"Dansom House, 656a Forest Road, Walthamstow",E17 3SH,-0.0103969,51.59006180000001
01639,Walthamstow,"7-13 Westbury Road, Walthamstow",E17 6RH,-0.0239976,51.58670370000001
1735,Wandsworth,"29 Hardwicks Square, Wandsworth, London",SW18 4AL,-0.1967862,51.4565491
07713,Warrington,"Nolan House, 10 Mersey Street, Warrington",WA1 2BL,-2.5907063,53.386737
8855,Washington,"Pennine House, Town Centre, Washington, Tyne and Wear",NE37 1LY,-1.5345716,54.89642689999999
04618,Washwood Heath,"295 Washwood Heath, Washwood Heath, Birmingham",B8 2XX,-1.8484734,52.49607990000001
01673,Watford,"Exchange House, 60 Exchange Road, Watford, Herts",WD18 0JJ,-0.4001952,51.6561555
5532,Wellingborough,"Lothersdale House, West Villa Road, Wellingborough, Northamptonshire",NN8 4NE,-0.6992062,52.30176179999999
03704,Wells,"46 Chamberlain Street, Wells, Somerset",BA5 2PJ,-2.6502729,51.2094744
9683,Welshpool,"New Dolanog House, Severn Road, Welshpool,",SY21 7AP,-3.1444525,52.6580744
1573,Wembley,"6 St Johns Road, Wembley, Middlesex",HA9 7JD,-0.2966621,51.5540644
4591,West Bromwich,"Christchurch House, High Street, West Bromwich",B70 8LG,-1.9973714,52.5214031
7720,West Derby,"Springfield House, 416 Eaton Road, Liverpool, Merseyside",L12 3HT,-2.8947338,53.4194971
10887,Wester Hailes,"Murrayburn House, Westside Plaza, Edinburgh",EH14 2SP,-3.2866931,55.9158503
03705,Weston Super Mare,"Regent House, High Street",BS23 1JH,-2.9779823,51.3468427
1719,Weybridge,"Fortune House, 7-13 Monument Hill, Weybridge, Surrey",KT13 8RX,-0.4550603,51.3733245
03780,Weymouth,"Westwey House, Westwey Road, Weymouth, Dorset",DT4 8TG,-2.4599794,50.6074377
6797,Whitby,"6 Bobbies Bank, Whitby",YO21 1QZ,-0.6156349999999999,54.48464329999999
4554,Whitchurch,"Green End Parade, Whitchurch, Shropshire",SY13 1AG,-2.6792224,52.9693868
08513,Whitehaven,"The Copeland Centre, Catherine Street, Whitehaven, Cumbria",CA28 7SJ,-3.5890322,54.5457565
10661,Wick,"Caithness House, Market Square, Wick",KW1 4HJ,-3.0897397,58.4443619
07716,Widnes,"2 Kingsway House, Caldwell Road, Widnes, Cheshire,",WA8 7EA,-2.734401000000001,53.362299
7717,Wigan,"Brocol House, 71-73 King Street, Wigan",WN1 1EA,-2.629646,53.5433074
4592,Willenhall,"Upper Lichfield Street, Willenhall",WV13 1DH,-2.0550925,52.58556
1698,Winchester,"City Gate, 8 City Road, Winchester",SO23 8GA,-1.3164175,51.0663837
07529,Winsford,"Wyvern House, The Drumber, Winsford",CW7 1AH,-2.5258944,53.18940199999999
2744,Wisbech,"Albion House, Albion Place, Wisbech",PE13 1AN,0.1600487,52.6666532
01745,Witham,"2-3 Freebournes Court, Newland Street, Witham, Essex",CM8 2BL,0.6423540999999999,51.8008672
01699,Witney,"Unit A, Two Rivers Trading Est., Station Lane, Witney, Oxon",OX28 4JA,-1.4816628,51.7785923
1720,Woking,"Civic Office, Gloucester Square, Woking",GU21 6AR,-0.5588704999999999,51.3209901
04641,Wolverhampton Chapel Court,"Queen Street, Wolverhampton",WV1 3AF,-2.1255085,52.5853889
04593,Wolverhampton Molineux House,"Molineux House, Temple Street, Wolverhampton, West Midlands",WV2 4AU,-2.1272553,52.5820878
06749,Wombwell,"19 Kings Road, Wombwell, Barnsley, S Yorks",S73 0JE,-1.3968852,53.519775
1544,Wood Green,"Granta House, 1 Western Road, London",N22 6UU,-0.1142042,51.5954635
2781,Woodbridge,"59 Thoroughfare, Woodbridge, Suffolk",IP12 1AJ,1.3200084,52.0940316
1524,Woolwich,"Nelson House, 50 Wellington Street, Woolwich, London",SE18 6PY,0.0634136,51.48891279999999
08515,Workington,"Simon House, 197 - 199 Vulcan Lane, Workington, Cumbria",CA14 2BW,-3.5493715,54.64385249999999
05666,Worksop,"Queen's Building, Potter Street, Worksop, Nottinghamshire",S80 2AQ,-1.1216455,53.30201539999999
7712,Worsley,"5-6 Worsley Court, High Street, Walkden, Manchester",M28 3AD,-2.4001615,53.5242081
1812,Worthing,"Crown House, High Street, Worthing, Sussex",BN11 1NG,-0.3671689,50.8133456
09673,Wrexham,"Ty Maelor, 15 - 17 Grosvenor Road, Wrexham",LL11 1BW,-2.9970392,53.04943780000001
7526,Wythenshawe,"Forum Trust Complex, Forum Square, Wythenshawe",M22 5RX,-2.2650168,53.3799413
04600,Yardley,"1630 Coventry Road, Yardley, Birmingham",B26 1AW,-1.8102196,52.4619799
3757,Yate,"39 South Parade, Yate Town Shopping Centre, Yate",BS37 4BB,-2.4131426,51.5392398
03706,Yeovil,"Federated House, 29-31 Henford, Yeovil, Somerset",BA20 1UU,-2.6352828,50.9396706
06752,York Monkgate,"11-17 Monkgate, York",YO31 7JZ,-1.0779786,53.9636188
9679,Ystradgynlais,"Wind Road, Ystradgynlais, Swansea",SA9 1AB,-3.7744266,51.766644
